{
  "norad_id": 47588,
  "name": "STARLINK-1993",
  "history": [
    {
      "epoch": "2026-03-28T22:00:01.999584Z",
      "apogee_km": 353.18746740775805,
      "perigee_km": 345.55860557657525,
      "latitude_deg": 52.984899439177795,
      "longitude_deg": -175.12546755257935,
      "height_km": 357.3608496886582,
      "semi_major_axis_km": 6727.510036492166,
      "eccentricity": 0.00056699,
      "inclination_deg": 53.0413,
      "raan_deg": 244.1218,
      "arg_perigee_deg": 340.7281,
      "mean_anomaly_deg": 113.4849,
      "mean_motion_rev_day": 15.73335096
    },
    {
      "epoch": "2026-03-29T06:00:02.998944Z",
      "apogee_km": 352.8441767477161,
      "perigee_km": 345.343314466365,
      "latitude_deg": -2.8386614908676497,
      "longitude_deg": 147.91788686261827,
      "height_km": 353.8473402227571,
      "semi_major_axis_km": 6727.23074560704,
      "eccentricity": 0.0005575,
      "inclination_deg": 53.0413,
      "raan_deg": 242.4631,
      "arg_perigee_deg": 339.8903,
      "mean_anomaly_deg": 203.5648,
      "mean_motion_rev_day": 15.73433076
    },
    {
      "epoch": "2026-03-30T02:33:50.622624Z",
      "apogee_km": 352.1425164960665,
      "perigee_km": 344.1738745779139,
      "latitude_deg": -2.9951777063858367e-05,
      "longitude_deg": 12.240522425922917,
      "height_km": 345.2332048343207,
      "semi_major_axis_km": 6726.29519553699,
      "eccentricity": 0.00059235,
      "inclination_deg": 53.0419,
      "raan_deg": 238.2048,
      "arg_perigee_deg": 344.0286,
      "mean_anomaly_deg": 16.0544,
      "mean_motion_rev_day": 15.73761357
    },
    {
      "epoch": "2026-03-30T14:00:03.000384Z",
      "apogee_km": 351.6933417837381,
      "perigee_km": 343.48365221308177,
      "latitude_deg": -1.3677857151139194,
      "longitude_deg": 18.872310111973867,
      "height_km": 352.5969206586352,
      "semi_major_axis_km": 6725.72549699841,
      "eccentricity": 0.00061032,
      "inclination_deg": 53.0411,
      "raan_deg": 235.8342,
      "arg_perigee_deg": 344.2184,
      "mean_anomaly_deg": 197.4019,
      "mean_motion_rev_day": 15.73961318
    },
    {
      "epoch": "2026-03-30T22:00:00.999936Z",
      "apogee_km": 351.5849023273495,
      "perigee_km": 342.6307768430288,
      "latitude_deg": -53.175341251978345,
      "longitude_deg": -11.9252001648153,
      "height_km": 364.1900812934318,
      "semi_major_axis_km": 6725.244839585189,
      "eccentricity": 0.00066571,
      "inclination_deg": 53.041,
      "raan_deg": 234.1769,
      "arg_perigee_deg": 343.4916,
      "mean_anomaly_deg": 287.9095,
      "mean_motion_rev_day": 15.74130059
    }
  ]
}